[{"OBJECT_NAME":"STARLINK-6162","OBJECT_ID":"2023-090AG","EPOCH":"2026-03-09T22:00:01.999584","MEAN_MOTION":15.11147273,"ECCENTRICITY":0.00022375,"INCLINATION":43.0004,"RA_OF_ASC_NODE":260.6528,"ARG_OF_PERICENTER":277.9348,"MEAN_ANOMALY":116.1438,"EPHEMERIS_TYPE":0,"CLASSIFICATION_TYPE":"U","NORAD_CAT_ID":57131,"ELEMENT_SET_NO":999,"REV_AT_EPOCH":577,"BSTAR":0.0060870008,"MEAN_MOTION_DOT":0.00105191,"MEAN_MOTION_DDOT":0},{"OBJECT_NAME":"IRIDIUM 33 DEB","OBJECT_ID":"1997-051QU","EPOCH":"2026-03-08T21:05:50.889408","MEAN_MOTION":15.14163842,"ECCENTRICITY":0.00066898,"INCLINATION":86.1938,"RA_OF_ASC_NODE":220.7787,"ARG_OF_PERICENTER":301.9958,"MEAN_ANOMALY":209.7336,"EPHEMERIS_TYPE":0,"CLASSIFICATION_TYPE":"U","NORAD_CAT_ID":35622,"ELEMENT_SET_NO":999,"REV_AT_EPOCH":88659,"BSTAR":0.0030521317,"MEAN_MOTION_DOT":0.00056043,"MEAN_MOTION_DDOT":0}]
